{
  "type": "FeatureCollection",
  "features": [
    {
      "type": "Feature",
      "properties": {
        "norad_id": 34765,
        "name": "IRIDIUM 33 DEB",
        "group": "iridium-33-debris",
        "lat": 78.79998214722409,
        "lon": -165.31401911477218,
        "alt_km": 754.7143935561271,
        "timestamp": "2025-12-10T21:43:22.476107+00:00",
        "meta_object_name": "IRIDIUM 33 DEB",
        "meta_object_id": "1997-051LJ",
        "meta_epoch": "2025-12-10T09:40:41.988864",
        "meta_mean_motion": 14.40455804,
        "meta_eccentricity": 0.00152,
        "meta_inclination": 86.3395,
        "meta_ra_of_asc_node": 33.7642,
        "meta_arg_of_pericenter": 219.5885,
        "meta_mean_anomaly": 160.3366,
        "meta_ephemeris_type": 0,
        "meta_classification_type": "U",
        "meta_norad_cat_id": 34765,
        "meta_element_set_no": 999,
        "meta_rev_at_epoch": 87580,
        "meta_bstar": 0.00061829998,
        "meta_mean_motion_dot": 1.986e-05,
        "meta_mean_motion_ddot": 0,
        "tle_line1": "1 34765U 97051LJ  25344.40326376  .00001986  00000+0  61830-3 0  9990",
        "tle_line2": "2 34765  86.3395  33.7642 0015200 219.5885 160.3366 14.40455804875800"
      },
      "geometry": {
        "type": "Point",
        "coordinates": [
          -165.31401911477218,
          78.79998214722409
        ]
      }
    },
    {
      "type": "Feature",
      "properties": {
        "norad_id": 34833,
        "name": "IRIDIUM 33 DEB",
        "group": "iridium-33-debris",
        "lat": 51.97497626370013,
        "lon": -132.84258104595588,
        "alt_km": 699.0542455843206,
        "timestamp": "2025-12-10T21:43:22.476117+00:00",
        "meta_object_name": "IRIDIUM 33 DEB",
        "meta_object_id": "1997-051MH",
        "meta_epoch": "2025-12-10T04:50:56.700096",
        "meta_mean_motion": 14.52352974,
        "meta_eccentricity": 0.0021797,
        "meta_inclination": 86.3927,
        "meta_ra_of_asc_node": 52.0875,
        "meta_arg_of_pericenter": 106.3594,
        "meta_mean_anomaly": 307.6921,
        "meta_ephemeris_type": 0,
        "meta_classification_type": "U",
        "meta_norad_cat_id": 34833,
        "meta_element_set_no": 999,
        "meta_rev_at_epoch": 87678,
        "meta_bstar": 0.0011722,
        "meta_mean_motion_dot": 4.804e-05,
        "meta_mean_motion_ddot": 0,
        "tle_line1": "1 34833U 97051MH  25344.20204514  .00004804  00000+0  11722-2 0  9999",
        "tle_line2": "2 34833  86.3927  52.0875 0021797 106.3594 307.6921 14.52352974876785"
      },
      "geometry": {
        "type": "Point",
        "coordinates": [
          -132.84258104595588,
          51.97497626370013
        ]
      }
    },
    {
      "type": "Feature",
      "properties": {
        "norad_id": 34870,
        "name": "IRIDIUM 33 DEB",
        "group": "iridium-33-debris",
        "lat": -58.44350263856916,
        "lon": -51.10623563671354,
        "alt_km": 652.1979673645446,
        "timestamp": "2025-12-10T21:43:22.476130+00:00",
        "meta_object_name": "IRIDIUM 33 DEB",
        "meta_object_id": "1997-051MQ",
        "meta_epoch": "2025-12-10T09:39:54.584640",
        "meta_mean_motion": 14.76351928,
        "meta_eccentricity": 0.00158535,
        "meta_inclination": 86.3109,
        "meta_ra_of_asc_node": 315.154,
        "meta_arg_of_pericenter": 191.0741,
        "meta_mean_anomaly": 321.7047,
        "meta_ephemeris_type": 0,
        "meta_classification_type": "U",
        "meta_norad_cat_id": 34870,
        "meta_element_set_no": 999,
        "meta_rev_at_epoch": 88876,
        "meta_bstar": 0.0022898178,
        "meta_mean_motion_dot": 0.00015968,
        "meta_mean_motion_ddot": 0,
        "tle_line1": "1 34870U 97051MQ  25344.40271510  .00015968  00000+0  22898-2 0  9991",
        "tle_line2": "2 34870  86.3109 315.1540 0015853 191.0741 321.7047 14.76351928888762"
      },
      "geometry": {
        "type": "Point",
        "coordinates": [
          -51.10623563671354,
          -58.44350263856916
        ]
      }
    },
    {
      "type": "Feature",
      "properties": {
        "norad_id": 34896,
        "name": "IRIDIUM 33 DEB",
        "group": "iridium-33-debris",
        "lat": -29.2378780891674,
        "lon": 149.56745618898879,
        "alt_km": 662.4713031673746,
        "timestamp": "2025-12-10T21:43:22.476140+00:00",
        "meta_object_name": "IRIDIUM 33 DEB",
        "meta_object_id": "1997-051MY",
        "meta_epoch": "2025-12-10T06:18:53.078976",
        "meta_mean_motion": 14.66236202,
        "meta_eccentricity": 0.0024107,
        "meta_inclination": 86.3294,
        "meta_ra_of_asc_node": 327.796,
        "meta_arg_of_pericenter": 223.7133,
        "meta_mean_anomaly": 198.9285,
        "meta_ephemeris_type": 0,
        "meta_classification_type": "U",
        "meta_norad_cat_id": 34896,
        "meta_element_set_no": 999,
        "meta_rev_at_epoch": 87583,
        "meta_bstar": 0.0014714,
        "meta_mean_motion_dot": 8.162e-05,
        "meta_mean_motion_ddot": 0,
        "tle_line1": "1 34896U 97051MY  25344.26311434  .00008162  00000+0  14714-2 0  9999",
        "tle_line2": "2 34896  86.3294 327.7960 0024107 223.7133 198.9285 14.66236202875838"
      },
      "geometry": {
        "type": "Point",
        "coordinates": [
          149.56745618898879,
          -29.2378780891674
        ]
      }
    },
    {
      "type": "Feature",
      "properties": {
        "norad_id": 34926,
        "name": "IRIDIUM 33 DEB",
        "group": "iridium-33-debris",
        "lat": 15.053670350042813,
        "lon": 10.166019461092468,
        "alt_km": 699.3484663768686,
        "timestamp": "2025-12-10T21:43:22.476152+00:00",
        "meta_object_name": "IRIDIUM 33 DEB",
        "meta_object_id": "1997-051NF",
        "meta_epoch": "2025-12-10T08:30:38.692800",
        "meta_mean_motion": 14.54232236,
        "meta_eccentricity": 0.00758375,
        "meta_inclination": 86.132,
        "meta_ra_of_asc_node": 9.3785,
        "meta_arg_of_pericenter": 300.9575,
        "meta_mean_anomaly": 73.1796,
        "meta_ephemeris_type": 0,
        "meta_classification_type": "U",
        "meta_norad_cat_id": 34926,
        "meta_element_set_no": 999,
        "meta_rev_at_epoch": 86422,
        "meta_bstar": 0.0084014253,
        "meta_mean_motion_dot": 0.00037149,
        "meta_mean_motion_ddot": 0,
        "tle_line1": "1 34926U 97051NF  25344.35461450  .00037149  00000+0  84014-2 0  9994",
        "tle_line2": "2 34926  86.1320   9.3785 0075837 300.9575  73.1796 14.54232236864224"
      },
      "geometry": {
        "type": "Point",
        "coordinates": [
          10.166019461092468,
          15.053670350042813
        ]
      }
    },
    {
      "type": "Feature",
      "properties": {
        "norad_id": 34985,
        "name": "IRIDIUM 33 DEB",
        "group": "iridium-33-debris",
        "lat": -40.78097019697975,
        "lon": -119.19831807270708,
        "alt_km": 744.0026880247251,
        "timestamp": "2025-12-10T21:43:22.476163+00:00",
        "meta_object_name": "IRIDIUM 33 DEB",
        "meta_object_id": "1997-051NR",
        "meta_epoch": "2025-12-10T04:10:55.898976",
        "meta_mean_motion": 14.41991528,
        "meta_eccentricity": 0.00204833,
        "meta_inclination": 86.3695,
        "meta_ra_of_asc_node": 57.9739,
        "meta_arg_of_pericenter": 228.6146,
        "meta_mean_anomaly": 160.5649,
        "meta_ephemeris_type": 0,
        "meta_classification_type": "U",
        "meta_norad_cat_id": 34985,
        "meta_element_set_no": 999,
        "meta_rev_at_epoch": 87138,
        "meta_bstar": 0.00097130288,
        "meta_mean_motion_dot": 3.211e-05,
        "meta_mean_motion_ddot": 0,
        "tle_line1": "1 34985U 97051NR  25344.17425809  .00003211  00000+0  97130-3 0  9994",
        "tle_line2": "2 34985  86.3695  57.9739 0020483 228.6146 160.5649 14.41991528871386"
      },
      "geometry": {
        "type": "Point",
        "coordinates": [
          -119.19831807270708,
          -40.78097019697975
        ]
      }
    },
    {
      "type": "Feature",
      "properties": {
        "norad_id": 35051,
        "name": "IRIDIUM 33 DEB",
        "group": "iridium-33-debris",
        "lat": 62.97511775704676,
        "lon": -177.57904107858013,
        "alt_km": 720.4259948998342,
        "timestamp": "2025-12-10T21:43:22.476173+00:00",
        "meta_object_name": "IRIDIUM 33 DEB",
        "meta_object_id": "1997-051NX",
        "meta_epoch": "2025-12-10T01:16:41.683872",
        "meta_mean_motion": 14.47578215,
        "meta_eccentricity": 0.00106632,
        "meta_inclination": 86.3242,
        "meta_ra_of_asc_node": 10.0324,
        "meta_arg_of_pericenter": 98.47,
        "meta_mean_anomaly": 261.7712,
        "meta_ephemeris_type": 0,
        "meta_classification_type": "U",
        "meta_norad_cat_id": 35051,
        "meta_element_set_no": 999,
        "meta_rev_at_epoch": 86957,
        "meta_bstar": 0.00086361177,
        "meta_mean_motion_dot": 3.199e-05,
        "meta_mean_motion_ddot": 0,
        "tle_line1": "1 35051U 97051NX  25344.05326023  .00003199  00000+0  86361-3 0  9993",
        "tle_line2": "2 35051  86.3242  10.0324 0010663  98.4700 261.7712 14.47578215869570"
      },
      "geometry": {
        "type": "Point",
        "coordinates": [
          -177.57904107858013,
          62.97511775704676
        ]
      }
    }
  ]
}